LANDSAT 4               
1 13367U 82072A   13082.83199560  .00002207  00000-0  14974-3 0  3065
2 13367  98.2674 107.9625 0016788  39.1730  12.8988 15.07522708651310
TDRS 1                  
1 13969U 83026B   13082.15768268 -.00000197  00000-0  10000-3 0  5475
2 13969  13.9053 359.8245 0020746 126.2907 233.9075  0.98744929 82633
LANDSAT 5               
1 14780U 84021A   13083.21386933  .00000126  00000-0  32789-4 0  8480
2 14780  98.1060 148.6771 0001598 173.5203 186.6031 14.64282670545812
ERBS                    
1 15354U 84108B   13082.83739482  .00003786  00000-0  17410-3 0  1832
2 15354  57.0197 218.0923 0024790  83.5258 276.8609 15.22470427560921
TDRS 3                  
1 19548U 88091B   13081.96178027 -.00000295  00000-0  00000+0 0   421
2 19548  14.0568  25.1247 0013704 345.4057 107.1241  1.00260769 76928
TDRS 4                  
1 19883U 89021B   13081.26379054 -.00000139  00000-0  00000+0 0  3793
2 19883  11.3688  31.6968 0012851 226.1304 133.7832  0.98483504260417
HST                     
1 20580U 90037B   13082.51468804  .00001580  00000-0  10120-3 0  2011
2 20580  28.4699 114.3559 0003235 152.7930 359.8203 15.03390570 56793
TDRS 5                  
1 21639U 91054B   13082.95117532  .00000097  00000-0  00000+0 0  2502
2 21639  12.6158  39.0634 0019494 346.7239 330.6475  1.00266346 79251
TOPEX/POSEIDON          
1 22076U 92052A   13083.16367520 -.00000087  00000-0 -11355-3 0  9973
2 22076  66.0391  92.5051 0008295 273.9870 156.7684 12.80974186964480
TDRS 6                  
1 22314U 93003B   13081.97279906 -.00000285  00000-0  00000+0 0  2784
2 22314  12.0343  41.8947 0012578 334.7396 108.2365  1.00278806 73971
TDRS 7                  
1 23613U 95035B   13082.73570888 -.00000192  00000-0  00000+0 0  4220
2 23613  13.5603  32.5222 0033679 353.1298 145.2072  1.00277947 64772
RXTE (XTE)              
1 23757U 95074A   13081.80093547  .00005238  00000-0  12552-3 0  8645
2 23757  22.9885 267.0708 0006943  29.3851  83.7579 15.37147463956673
TRMM                    
1 25063U 97074A   13081.88934931  .00016289  00000-0  22649-3 0  2750
2 25063  34.9588 245.5490 0000929 275.2829 204.1493 15.56045298874354
KIKU-7 (ETS-VII)        
1 25064U 97074B   13082.08210435  .00006312  00000-0  17532-3 0  8577
2 25064  34.9698 306.9245 0005015 183.5649 299.3729 15.36157029851525
ISS (ZARYA)             
1 25544U 98067A   13083.35038144  .00010302  00000-0  17411-3 0  4687
2 25544  51.6461 169.5099 0012106  65.9767 338.6379 15.52163589821537
LANDSAT 7               
1 25682U 99020A   13083.09551937  .00000169  00000-0  47451-4 0  9808
2 25682  98.1996 153.8359 0001232  60.2026 299.9298 14.57121782741441
FUSE 1                  
1 25791U 99035A   13082.49559041  .00000361  00000-0  54072-4 0  4820
2 25791  24.9837 175.1106 0010533 328.1898 129.6398 14.42131048725102
TERRA                   
1 25994U 99068A   13083.24793428  .00000280  00000-0  72128-4 0  9551
2 25994  98.2124 159.3840 0001141  98.1509 261.9836 14.57108361705548
TDRS 8                  
1 26388U 00034A   13082.78814512 -.00000226  00000-0  00000+0 0  8555
2 26388   4.5620  72.7820 0001350 301.4436 179.9163  1.00265752 46725
EO-1                    
1 26619U 00075A   13083.11197324  .00000630  00000-0  13215-3 0  3065
2 26619  98.0400 147.5910 0008963 316.4999  43.5531 14.62890466657354
TIMED                   
1 26998U 01055B   13083.17811181  .00000597  00000-0  73474-4 0  4487
2 26998  74.0733 146.7930 0002701 263.4893  96.5978 14.85398767611690
TDRS 9                  
1 27389U 02011A   13082.21700852 -.00000270  00000-0  10000-3 0  1066
2 27389   2.1094 116.4353 0014887 269.8993 191.6596  1.00275998 41973
AQUA                    
1 27424U 02022A   13082.86995353  .00000364  00000-0  91046-4 0  6205
2 27424  98.2299  25.4768 0001435 100.5987 334.9989 14.57078412579099
TDRS 10                 
1 27566U 02055A   13082.64375889  .00000075  00000-0  10000-3 0  8278
2 27566   2.1271  64.6459 0010158 214.4479 319.5223  1.00270677 37792
SORCE                   
1 27651U 03004A   13082.73180660  .00000919  00000-0  12229-3 0   576
2 27651  39.9951 277.3527 0026359 204.5099 211.7163 14.84357806550531
GALEX                   
1 27783U 03017A   13082.48510824  .00000597  00000-0  99198-4 0  7410
2 27783  28.9976 165.3567 0003926 293.3657 172.3230 14.60615357528953
GP-B                    
1 28230U 04014A   13083.17739346  .00000429  00000-0  58821-4 0  6922
2 28230  89.9053 145.7018 0001847 112.6054 299.4020 14.76874396480773
AURA                    
1 28376U 04026A   13082.38057300  .00000503  00000-0  12175-3 0  7533
2 28376  98.2273  27.1865 0001385  74.2372 285.8973 14.57132416462075
SWIFT                   
1 28485U 04047A   13082.13887052  .00002042  00000-0  14109-3 0  3990
2 28485  20.5574  98.5365 0012964 229.6040 180.3816 14.95979703455514
THEMIS A                
1 30580U 07004A   13078.33368350 -.00000250  00000-0  00000+0 0  5293
2 30580  11.9850  75.2515 8215680  50.6457  13.8517  1.04956079 21733
THEMIS D                
1 30797U 07004D   13078.02825575 -.00000240  00000-0  00000+0 0  6825
2 30797   8.2006  43.2050 8193976  78.4525  15.4604  1.04998993 21580
THEMIS E                
1 30798U 07004E   13078.19223877 -.00000211  00000-0  00000+0 0  6919
2 30798   8.2645  57.9181 8195663  65.7024  35.6847  1.04978416 21744
AIM                     
1 31304U 07015A   13082.83921991  .00002331  00000-0  20443-3 0  9917
2 31304  97.8509 198.1969 0009442 338.6667 167.4799 14.97608530322173
C/NOFS                  
1 32765U 08017A   13081.13395677  .00010237  00000-0  35647-3 0  2593
2 32765  13.0023  31.3129 0240184 173.2536 302.4176 15.02237339268328
FGRST (GLAST)           
1 33053U 08029A   13082.37768128  .00001505  00000-0  79647-4 0  2899
2 33053  25.5835  64.9491 0014215  72.0419  80.4597 15.06886646263366
WISE                    
1 36119U 09071A   13082.85025228  .00001834  00000-0  96594-4 0  9457
2 36119  97.5200  90.8571 0002485  12.8134  37.3908 15.16881741180868
TDRS 11                 
1 39070U 13004A   13082.83273459  .00000108  00000-0  00000+0 0   610
2 39070   6.9807 331.6971 0010101 250.8200 109.0117  1.00267282   570
